FALCONSAT-6             
1 43815U 18099BK  26068.72544389  .00005029  00000+0  19477-3 0  9998
2 43815  97.3865 145.8165 0014370 297.0944 181.0714 15.26532865398556
STARLINK-33739          
1 63572U 25076D   26068.40930617  .00021372  00000+0  78345-3 0  9999
2 63572  43.0046 323.6207 0002133 272.8873  87.1735 15.27599048 51783
